STARLINK-36402          
1 68966U 26099R   26132.83335648  .00015224  00000+0  80535-4 0  9993
2 68966  53.1592 331.6192 0000499  68.7162 322.1438 15.80872062  3037
