{
  "norad_id": 68966,
  "name": "STARLINK-36402",
  "history": [
    {
      "epoch": "2026-05-12T20:00:01.999008Z",
      "apogee_km": 328.30859628142025,
      "perigee_km": 327.63798525234324,
      "latitude_deg": 24.30117482639918,
      "longitude_deg": -179.33414945513098,
      "height_km": 328.6146926554996,
      "semi_major_axis_km": 6706.110290766881,
      "eccentricity": 5e-05,
      "inclination_deg": 53.1592,
      "raan_deg": 331.6192,
      "arg_perigee_deg": 68.7162,
      "mean_anomaly_deg": 322.1438,
      "mean_motion_rev_day": 15.80872062
    }
  ]
}